OBJECT_NAME,OBJECT_ID,EPOCH,MEAN_MOTION,ECCENTRICITY,INCLINATION,RA_OF_ASC_NODE,ARG_OF_PERICENTER,MEAN_ANOMALY,EPHEMERIS_TYPE,CLASSIFICATION_TYPE,NORAD_CAT_ID,ELEMENT_SET_NO,REV_AT_EPOCH,BSTAR,MEAN_MOTION_DOT,MEAN_MOTION_DDOT
DUBAISAT-1,2009-041B,2026-07-14T21:35:35.644704,14.75166402,.00099946,98.0085,328.8592,349.7229,10.3774,0,U,35682,999,90918,.63580619E-4,.378E-5,0
OCEANSAT-2,2009-051A,2026-07-15T00:10:59.907648,13.99656010,.00173291,98.2320,180.0815,154.0205,206.1835,0,U,35931,999,88322,-.42306971E-4,-.99E-6,0
WORLDVIEW-2 (WV-2),2009-055A,2026-07-14T22:17:07.813824,14.37906848,.0005305,98.4757,269.0005,130.4608,229.7042,0,U,35946,999,87963,.26696699E-4,.37E-6,0
SMOS,2009-059A,2026-07-14T12:02:03.650496,14.39735847,.0001146,98.4427,22.4360,95.7390,264.3929,0,U,36036,999,87738,.57657615E-4,.137E-5,0
YAOGAN-7,2009-069A,2026-07-14T15:24:45.770688,14.78035216,.00235495,98.0034,81.3353,313.2260,46.6983,0,U,36110,999,89368,.36592194E-4,.212E-5,0
TANDEM-X,2010-030A,2026-07-07T11:29:58.986816,15.19154052,.0001887,97.4457,195.8973,94.3019,265.8431,0,U,36605,999,88972,.21566E-4,.386E-5,0
CARTOSAT-2B,2010-035A,2026-07-14T22:47:10.078080,14.78615366,.00125773,97.9944,246.3189,99.9063,260.3568,0,U,36795,999,86395,-.8569326E-5,-.115E-5,0
YAOGAN-10,2010-038A,2026-07-14T23:23:51.916416,14.85429965,.00016488,97.8969,219.1573,84.7241,1.4023,0,U,36834,999,86133,.15944097E-3,.132E-4,0
COSMO-SKYMED 4,2010-060A,2026-07-14T23:42:47.216736,14.82148314,.00014695,97.8885,19.1856,85.9027,274.2354,0,U,37216,999,84868,.34042039E-4,.219E-5,0
RESOURCESAT-2,2011-015A,2026-07-14T21:21:55.986912,14.21599453,.00115277,98.7632,263.1388,171.8949,188.2417,0,U,37387,999,79011,.1329329E-4,-.15E-6,0
HAIYANG-2A,2011-043A,2026-07-15T00:03:25.360704,13.73342071,.00025334,99.3395,198.0416,27.5481,332.5801,0,U,37781,999,75047,-.34168886E-3,-.361E-5,0
RASAT,2011-044D,2026-07-14T22:06:17.057664,14.68193205,.00219114,98.0586,286.8950,103.4927,347.2414,0,U,37791,999,79725,.82439274E-4,.427E-5,0
SRMSAT,2011-058D,2026-07-14T07:00:26.119872,14.11580990,.0011787,19.9711,255.4136,141.3057,265.6885,0,U,37841,999,76165,.42066051E-4,.343E-5,0
PLEIADES 1A,2011-076F,2026-07-14T23:33:09.840096,14.58545777,.00016926,98.1976,270.7094,79.8940,358.8427,0,U,38012,999,77604,-.16248503E-4,-.121E-5,0
ZIYUAN 1-02C (ZY 1-02C),2011-079A,2026-07-14T23:25:55.608384,14.38234592,.00055767,98.4067,262.7024,215.5639,222.1554,0,U,38038,999,76320,.2578229E-5,-.35E-6,0
ARIRANG-3 (KOMPSAT-3),2012-025B,2026-07-14T22:51:06.006240,14.62228934,.0006236,98.1184,152.9357,39.5315,320.6340,0,U,38338,999,75540,.47072719E-4,.191E-5,0
EXACTVIEW-1 (ADS-1B),2012-039C,2026-07-14T21:44:13.148736,14.24992172,.00119498,98.9805,313.9255,92.2681,267.9866,0,U,38709,999,72665,.35353276E-4,.36E-6,0
SPOT 6,2012-047A,2026-07-14T23:33:43.746048,14.58538459,.00011035,98.2115,262.9632,84.2923,275.8402,0,U,38755,999,73710,.25481555E-4,.73E-6,0
PLEIADES 1B,2012-068A,2026-07-15T00:00:30.361824,14.58533997,.00015863,98.1948,270.6675,78.4689,281.6689,0,U,39019,999,72490,.2612666E-4,.76E-6,0
GOKTURK 2,2012-073A,2026-07-14T22:50:26.125728,14.75568257,.00009107,97.6806,31.9906,91.4324,268.6990,0,U,39030,999,72860,.38263311E-4,.214E-5,0
LANDSAT 8,2013-008A,2026-07-14T21:42:47.283552,14.57111734,.00013408,98.2291,265.7091,94.1679,265.9673,0,U,39084,999,70193,.44954656E-4,.157E-5,0
SARAL,2013-009A,2026-07-14T21:40:19.729632,14.32895794,.00016852,98.5555,22.1197,167.2373,192.8854,0,U,39086,999,69957,.30102273E-4,.38E-6,0
GAOFEN-1,2013-018A,2026-07-14T23:35:58.529184,14.76519155,.0017021,97.9093,267.4844,171.7452,188.4042,0,U,39150,999,71234,.64604686E-4,.4E-5,0
VNREDSAT 1,2013-021B,2026-07-14T22:59:34.088352,14.64882871,.00015945,97.9071,248.3062,79.1018,281.0365,0,U,39160,999,70435,.20235569E-4,.63E-6,0
ARIRANG-5 (KOMPSAT-5),2013-042A,2026-07-14T23:11:46.025952,15.04496451,.00054432,97.6205,22.2770,58.7428,301.4331,0,U,39227,999,70803,.66200123E-4,.866E-5,0
SKYSAT-A,2013-066C,2026-07-14T16:52:07.332096,15.13113646,.00204289,97.3805,244.2233,215.2289,144.7594,0,U,39418,999,69264,.87888726E-4,.1499E-4,0
DUBAISAT-2,2013-066D,2026-07-14T23:08:07.870272,15.10374756,.00094062,97.4575,185.3855,304.0607,55.9730,0,U,39419,999,69058,.10777114E-3,.1708E-4,0
GPM-CORE,2014-009C,2026-07-14T20:26:44.967840,15.45040667,.00109737,64.9691,215.4372,261.9596,98.0299,0,U,39574,999,70208,.75227863E-4,.3316E-4,0
SENTINEL-1A,2014-016A,2026-07-14T22:23:47.446656,14.59196101,.00014359,98.1768,203.0608,86.9078,273.2286,0,U,39634,999,65406,.82784558E-4,.345E-5,0
KAZEOSAT 1,2014-024A,2026-07-14T23:36:57.513600,14.42036447,.00012411,98.3204,267.7378,82.1902,277.9429,0,U,39731,999,64256,-.26017954E-4,-.128E-5,0
