DUBAISAT-1              
1 35682U 09041B   26195.89971811  .00000378  00000+0  63581-4 0  9999
2 35682  98.0085 328.8592 0009994 349.7229  10.3774 14.75166402909185
OCEANSAT-2              
1 35931U 09051A   26196.00763782 -.00000099  00000+0 -42307-4 0  9992
2 35931  98.2320 180.0815 0017329 154.0205 206.1835 13.99656010883227
WORLDVIEW-2 (WV-2)      
1 35946U 09055A   26195.92856266  .00000037  00000+0  26697-4 0  9996
2 35946  98.4757 269.0005 0005305 130.4608 229.7042 14.37906848879635
SMOS                    
1 36036U 09059A   26195.50143114  .00000137  00000+0  57658-4 0  9998
2 36036  98.4427  22.4360 0001146  95.7390 264.3929 14.39735847877385
YAOGAN-7                
1 36110U 09069A   26195.64219642  .00000212  00000+0  36592-4 0  9995
2 36110  98.0034  81.3353 0023549 313.2260  46.6983 14.78035216893687
TANDEM-X                
1 36605U 10030A   26188.47915494  .00000386  00000+0  21566-4 0  9992
2 36605  97.4457 195.8973 0001887  94.3019 265.8431 15.19154052889726
CARTOSAT-2B             
1 36795U 10035A   26195.94942220 -.00000115  00000+0 -85693-5 0  9998
2 36795  97.9944 246.3189 0012577  99.9063 260.3568 14.78615366863953
YAOGAN-10               
1 36834U 10038A   26195.97490644  .00001320  00000+0  15944-3 0  9993
2 36834  97.8969 219.1573 0001648  84.7241   1.4023 14.85429965861331
COSMO-SKYMED 4          
1 37216U 10060A   26195.98804649  .00000219  00000+0  34042-4 0  9995
2 37216  97.8885  19.1856 0001469  85.9027 274.2354 14.82148314848684
RESOURCESAT-2           
1 37387U 11015A   26195.89023133 -.00000015  00000+0  13293-4 0  9996
2 37387  98.7632 263.1388 0011527 171.8949 188.2417 14.21599453790113
HAIYANG-2A              
1 37781U 11043A   26196.00237686 -.00000361  00000+0 -34169-3 0  9998
2 37781  99.3395 198.0416 0002533  27.5481 332.5801 13.73342071750471
RASAT                   
1 37791U 11044D   26195.92103076  .00000427  00000+0  82439-4 0  9990
2 37791  98.0586 286.8950 0021911 103.4927 347.2414 14.68193205797257
SRMSAT                  
1 37841U 11058D   26195.29196898  .00000343  00000+0  42066-4 0  9994
2 37841  19.9711 255.4136 0011787 141.3057 265.6885 14.11580990761657
PLEIADES 1A             
1 38012U 11076F   26195.98136389 -.00000121  00000+0 -16249-4 0  9990
2 38012  98.1976 270.7094 0001692  79.8940 358.8427 14.58545777776044
ZIYUAN 1-02C (ZY 1-02C) 
1 38038U 11079A   26195.97633806 -.00000035  00000+0  25782-5 0  9992
2 38038  98.4067 262.7024 0005576 215.5639 222.1554 14.38234592763205
ARIRANG-3 (KOMPSAT-3)   
1 38338U 12025B   26195.95215285  .00000191  00000+0  47073-4 0  9990
2 38338  98.1184 152.9357 0006236  39.5315 320.6340 14.62228934755403
EXACTVIEW-1 (ADS-1B)    
1 38709U 12039C   26195.90570774  .00000036  00000+0  35353-4 0  9995
2 38709  98.9805 313.9255 0011949  92.2681 267.9866 14.24992172726659
SPOT 6                  
1 38755U 12047A   26195.98175632  .00000073  00000+0  25482-4 0  9990
2 38755  98.2115 262.9632 0001103  84.2923 275.8402 14.58538459737107
PLEIADES 1B             
1 39019U 12068A   26196.00035141  .00000076  00000+0  26127-4 0  9991
2 39019  98.1948 270.6675 0001586  78.4689 281.6689 14.58533997724904
GOKTURK 2               
1 39030U 12073A   26195.95169127  .00000214  00000+0  38263-4 0  9993
2 39030  97.6806  31.9906 0000910  91.4324 268.6990 14.75568257728607
LANDSAT 8               
1 39084U 13008A   26195.90471393  .00000157  00000+0  44955-4 0  9998
2 39084  98.2291 265.7091 0001340  94.1679 265.9673 14.57111734701933
SARAL                   
1 39086U 13009A   26195.90300613  .00000038  00000+0  30102-4 0  9994
2 39086  98.5555  22.1197 0001685 167.2373 192.8854 14.32895794699571
GAOFEN-1                
1 39150U 13018A   26195.98331631  .00000400  00000+0  64605-4 0  9996
2 39150  97.9093 267.4844 0017021 171.7452 188.4042 14.76519155712348
VNREDSAT 1              
1 39160U 13021B   26195.95803343  .00000063  00000+0  20236-4 0  9999
2 39160  97.9071 248.3062 0001594  79.1018 281.0365 14.64882871704357
ARIRANG-5 (KOMPSAT-5)   
1 39227U 13042A   26195.96650493  .00000866  00000+0  66200-4 0  9995
2 39227  97.6205  22.2770 0005443  58.7428 301.4331 15.04496451708036
SKYSAT-A                
1 39418U 13066C   26195.70286264  .00001499  00000+0  87889-4 0  9995
2 39418  97.3805 244.2233 0020428 215.2289 144.7594 15.13113646692646
DUBAISAT-2              
1 39419U 13066D   26195.96397998  .00001708  00000+0  10777-3 0  9995
2 39419  97.4575 185.3855 0009406 304.0607  55.9730 15.10374756690585
GPM-CORE                
1 39574U 14009C   26195.85190935  .00003316  00000+0  75228-4 0  9995
2 39574  64.9691 215.4372 0010973 261.9596  98.0299 15.45040667702089
SENTINEL-1A             
1 39634U 14016A   26195.93318804  .00000345  00000+0  82785-4 0  9991
2 39634  98.1768 203.0608 0001435  86.9078 273.2286 14.59196101654064
KAZEOSAT 1              
1 39731U 14024A   26195.98399900 -.00000128  00000+0 -26018-4 0  9997
2 39731  98.3204 267.7378 0001241  82.1902 277.9429 14.42036447642569
